STARLINK-36301          
1 67932U 26037A   26085.25002315  .00040739  00000+0  69770-3 0  9998
2 67932  42.9998  98.3801 0001080 269.5360 313.1317 15.50536350  5770
STARLINK-36852          
1 67933U 26037B   26085.09904116  .00060059  00000+0  10187-2 0  9995
2 67933  43.0002 100.3943 0001273 264.8904  95.1811 15.50662379  5829
STARLINK-36861          
1 67934U 26037C   26085.25002315  .00033246  00000+0  57098-3 0  9995
2 67934  43.0001  98.6301 0001319 262.6669 218.9113 15.50536287  5863
STARLINK-36860          
1 67935U 26037D   26085.32825542  .00064268  00000+0  10924-2 0  9993
2 67935  43.0003  98.6590 0001191 277.8316  82.2409 15.50576709  5864
STARLINK-36848          
1 67936U 26037E   26085.08107127  .00066950  00000+0  11355-2 0  9998
2 67936  42.9931 100.2539 0000313 278.0635  82.0189 15.50622669  5824
STARLINK-36370          
1 67937U 26037F   26085.32320075  .00089118  00000+0  15055-2 0  9997
2 67937  42.9989  98.6205 0001970 263.3666  96.6970 15.50618254  5867
STARLINK-36371          
1 67938U 26037G   26085.25002315  .00028699  00000+0  49392-3 0  9993
2 67938  43.0001  98.7684 0001334 266.7032 158.2853 15.50538870  5865
STARLINK-36246          
1 67939U 26037H   26085.33330001  .00077538  00000+0  13142-2 0  9998
2 67939  42.9987  98.6964 0001312 273.0300  87.0410 15.50584947  5866
STARLINK-36907          
1 67940U 26037J   26085.25002315  .00037579  00000+0  64427-3 0  9999
2 67940  42.9999  98.3955 0001007 275.6032 299.8662 15.50536640  5868
STARLINK-36927          
1 67941U 26037K   26085.25002315  .00034569  00000+0  59337-3 0  9990
2 67941  43.0001  98.5616 0001166 257.1886 250.8903 15.50535919  5862
STARLINK-36914          
1 67942U 26037L   26085.25002315  .00033284  00000+0  57161-3 0  9997
2 67942  42.9997  98.1376 0001762 285.0984  34.9044 15.50536383  5868
STARLINK-36851          
1 67943U 26037M   26085.25002315  .00043973  00000+0  75251-3 0  9994
2 67943  43.0000  98.5281 0001205 294.7736 227.2422 15.50528540  5862
STARLINK-36892          
1 67944U 26037N   26085.25002315  .00036565  00000+0  62716-3 0  9996
2 67944  43.0000  98.4529 0001370 273.1801 279.1457 15.50535113  5862
STARLINK-36908          
1 67945U 26037P   26085.25002315  .00039890  00000+0  68336-3 0  9995
2 67945  42.9999  98.3748 0001169 274.0682 309.5465 15.50535747  5863
STARLINK-36909          
1 67946U 26037Q   26085.25002315 -.01004617  00000+0 -18308-1 0  9990
2 67946  42.9998  97.9311 0001439 265.0489 137.7484 15.51266519  5860
STARLINK-36920          
1 67947U 26037R   26085.25002315  .00032889  00000+0  56494-3 0  9990
2 67947  43.0002  98.6673 0001587 265.5332 199.6491 15.50535653  5866
STARLINK-36873          
1 67948U 26037S   26085.25002315  .00043393  00000+0  74258-3 0  9991
2 67948  43.0002  98.7400 0001345 280.2519 155.4760 15.50533519  5867
STARLINK-36863          
1 67949U 26037T   26085.25002315  .00046592  00000+0  79657-3 0  9994
2 67949  43.0001  98.4238 0000840 275.3108 288.2923 15.50533801  5861
STARLINK-36887          
1 67950U 26037U   26085.08778167  .00052748  00000+0  89711-3 0  9994
2 67950  42.9963 100.2995 0000530  85.5144 274.5776 15.50635174  5823
STARLINK-36897          
1 67951U 26037V   26085.25002315  .00065044  00000+0  11082-2 0  9997
2 67951  43.0001  98.4711 0001267 265.1186 279.3512 15.50507146  5865
STARLINK-36381          
1 67952U 26037W   26085.25002315  .00037331  00000+0  64012-3 0  9998
2 67952  43.0002  98.5491 0001919 269.8620 242.8118 15.50533861  5861
STARLINK-36824          
1 67953U 26037X   26085.33391917  .00097779  00000+0  16515-2 0  9993
2 67953  42.9997  98.7016 0000695 185.5549 174.5303 15.50583470  5860
STARLINK-36869          
1 67954U 26037Y   26085.33341408  .00082653  00000+0  13996-2 0  9999
2 67954  42.9986  98.6945 0000880 253.0853 106.9910 15.50584195  5862
STARLINK-36872          
1 67955U 26037Z   26085.25002315  .00041248  00000+0  70633-3 0  9999
2 67955  43.0000  98.2635 0001012 277.9158 349.3633 15.50534773  5867
STARLINK-36918          
1 67956U 26037AA  26085.25002315  .00037229  00000+0  63841-3 0  9997
2 67956  43.0001  98.4824 0001344 266.4878 272.4108 15.50533993  5867
STARLINK-36829          
1 67957U 26037AB  26085.25002315  .00030958  00000+0  53220-3 0  9990
2 67957  43.0001  98.7316 0000801 251.7292 186.5623 15.50538078  5867
STARLINK-36799          
1 67958U 26037AC  26085.25002315  .00031796  00000+0  54635-3 0  9993
2 67958  42.9997  98.0774 0001282 269.1962  73.4814 15.50540937  5865
STARLINK-36834          
1 67959U 26037AD  26085.25002315  .00033205  00000+0  57027-3 0  9999
2 67959  43.0002  98.6918 0001352 269.3871 184.3570 15.50536378  5865
STARLINK-36841          
1 67960U 26037AE  26085.25002315  .00038863  00000+0  66603-3 0  9996
2 67960  43.0002  98.6372 0000993 263.2220 212.7171 15.50534646  5861
STARLINK-36912          
1 67961U 26038A   26085.25002315 -.00001083  00000+0 -31226-4 0  9998
2 67961  97.2850  96.0635 0001066  99.3637 246.0841 15.33433461  5868
STARLINK-36881          
1 67962U 26038B   26085.25002315 -.01658700  00000+0 -54437-1 0  9990
2 67962  97.2849  96.0716 0001718 154.6068 205.1536 15.34657156  5861
STARLINK-36357          
1 67963U 26038C   26085.25002315 -.02216759  00000+0 -60432-1 0  9998
2 67963  97.2850  96.0812 0001617 100.5297 270.7359 15.40764945  5866
STARLINK-36349          
1 67964U 26038D   26085.25002315 -.02207748  00000+0 -61648-1 0  9997
2 67964  97.2851  96.0756 0001496  97.6924 261.8167 15.40028895  5868
STARLINK-36806          
1 67965U 26038E   26085.25002315  .00007501  00000+0  23459-3 0  9999
2 67965  97.2853  96.0878 0001737  90.4881 314.9687 15.33422926  5869
STARLINK-36820          
1 67966U 26038F   26085.25002315  .00016701  00000+0  51946-3 0  9994
2 67966  97.2855  96.0983 0001631 115.2366 305.1940 15.33386058  5865
STARLINK-36819          
1 67967U 26038G   26085.02872803  .00056461  00000+0  10317-2 0  9990
2 67967  97.2848  95.7581 0001099  96.8784 263.2592 15.49207413  5731
STARLINK-36812          
1 67968U 26038H   26085.25002315  .00007811  00000+0  24426-3 0  9991
2 67968  97.2851  96.1073 0001285  87.2175   3.2620 15.33413394  5860
STARLINK-36709          
1 67969U 26038J   26085.25002315  .00000187  00000+0  81485-5 0  9991
2 67969  97.2851  96.1248 0001641  72.3742  48.1302 15.33367311  5868
STARLINK-36319          
1 67970U 26038K   26085.25002315 -.00806694  00000+0 -25833-1 0  9993
2 67970  97.2854  96.0804 0001567 100.7530 284.5570 15.34793998  5833
STARLINK-36710          
1 67971U 26038L   26085.25002315  .00010831  00000+0  33776-3 0  9999
2 67971  97.2850  96.1295 0001332  54.7359  80.7584 15.33403814  5860
STARLINK-36894          
1 67972U 26038M   26085.25002315  .00008404  00000+0  26264-3 0  9997
2 67972  97.2855  96.1333 0001320  98.9958  51.4857 15.33411141  5861
STARLINK-36900          
1 67973U 26038N   26085.00397476  .00072394  00000+0  13192-2 0  9990
2 67973  97.2837  95.7910 0001078  91.3513 268.7862 15.49218352  5733
STARLINK-36901          
1 67974U 26038P   26085.25002315 -.00001011  00000+0 -29060-4 0  9996
2 67974  97.2850  96.1429 0001920 113.7196  51.7760 15.33371232  5862
STARLINK-36883          
1 67975U 26038Q   26085.25002315 -.02290693  00000+0 -56767-1 0  9996
2 67975  97.2851  96.1603 0001803  79.8851 123.0977 15.43713593  5862
STARLINK-36880          
1 67976U 26038R   26085.01478732  .00070531  00000+0  12859-2 0  9999
2 67976  97.2834  95.7764 0001031  98.7648 261.3720 15.49211581  5738
STARLINK-36904          
1 67977U 26038S   26085.25002315 -.02293486  00000+0 -57600-1 0  9998
2 67977  97.2852  96.1546 0001708  74.8338 115.5356 15.43324369  5866
STARLINK-36364          
1 67978U 26038T   26085.25002315 -.02765894  00000+0 -90227-1 0  9998
2 67978  97.2850  96.1894 0002046  91.9608 177.3565 15.35480985  5863
STARLINK-36359          
1 67979U 26038U   26085.25002315 -.03166439  00000+0 -10136+0 0  9999
2 67979  97.2848  96.1463 0001366  84.3089  86.4562 15.36634024  5869
STARLINK-36882          
1 67980U 26038V   26085.02140532  .00046834  00000+0  10311-2 0  9999
2 67980  97.2754  95.9136 0005404 345.7113  14.3982 15.43802144  5741
STARLINK-36874          
1 67981U 26038W   26085.25002315 -.02593890  00000+0 -85996-1 0  9994
2 67981  97.2851  96.1957 0002097  95.8250 188.5556 15.35376901  5866
STARLINK-36879          
1 67982U 26038X   26085.19261828  .00058283  00000+0  10644-2 0  9991
2 67982  97.2847  95.9932 0001552  21.4943 338.6373 15.49214169  5767
STARLINK-36867          
1 67983U 26038Y   26085.17934375  .00064541  00000+0  11783-2 0  9993
2 67983  97.2868  96.0126 0002063   7.4616 352.6665 15.49197008  5769
STARLINK-36266          
1 67984U 26038Z   26085.25002315 -.03301990  00000+0 -10770+0 0  9992
2 67984  97.2847  96.2090 0001489 107.1620 206.4182 15.36248471  5838
STARLINK-36802          
1 67985U 26038AA  26085.28503024  .00301788  00000+0  19462-2 0  9999
2 67985  97.2877  96.4716 0002191 101.6757 258.4755 15.75276479  5802
STARLINK-36535          
1 67986U 26039A   26085.25002315 -.02211074  00000+0 -73750-1 0  9996
2 67986  42.9998 315.9988 0001721 252.2605 312.5698 15.33883449  5530
STARLINK-36744          
1 67987U 26039B   26085.25002315 -.02176839  00000+0 -67434-1 0  9998
2 67987  42.9991 315.8139 0001643 259.6480  19.7667 15.36121206  5537
STARLINK-36734          
1 67988U 26039C   26084.94699447  .00069266  00000+0  11757-2 0  9991
2 67988  42.9996 318.5393 0002648 277.8465  82.2094 15.50586382  4170
STARLINK-36957          
1 67989U 26039D   26085.25002315 -.01869282  00000+0 -53451-1 0  9994
2 67989  42.9998 315.7966 0001326 251.7931  35.4273 15.38604321  5539
STARLINK-36951          
1 67990U 26039E   26084.04675806  .00061583  00000+0  10465-2 0  9997
2 67990  43.0018 322.9387 0002967 275.8567  84.1955 15.50598247  4043
STARLINK-36941          
